ORBCOMM FM33 [-]        
1 25983U 99065D   23314.59526905  .00001718  00000+0  62180-3 0  9996
2 25983  45.0290 251.0651 0009794 357.3100 172.1857 14.36963070251892
ORBCOMM FM36 [-]        
1 25984U 99065E   23314.74970455  .00001955  00000+0  73154-3 0  9993
2 25984  45.0409 332.7042 0005458 256.1016 103.9225 14.34838413250396
ORBCOMM FM35 [+]        
1 25985U 99065F   23315.44246639  .00001534  00000+0  58863-3 0  9995
2 25985  45.0407 331.5883 0003767 324.8310  35.2288 14.34518931251089
ORBCOMM FM34 [-]        
1 25986U 99065G   23315.40753761  .00001452  00000+0  56028-3 0  9991
2 25986  45.0403 332.2364 0005559 289.0810  70.9435 14.34470676251045
ORBCOMM FM38 [-]        
1 33060U 08031A   23314.91464024  .00002407  00000+0  37207-3 0  9991
2 33060  48.4411 208.1755 0005240  57.1598 302.9819 14.76386382828288
ORBCOMM FM41 [-]        
1 33061U 08031B   23315.16052778  .00002332  00000+0  36342-3 0  9995
2 33061  48.4444 213.2244 0004413  43.2693 111.0429 14.76147949828266
ORBCOMM FM29 [-]        
1 33062U 08031C   23315.13533257  .00002514  00000+0  39047-3 0  9996
2 33062  48.4400 221.3349 0006332  41.3963 100.7223 14.76030145828127
ORBCOMM FM39 [-]        
1 33063U 08031D   23315.16388717  .00002322  00000+0  37011-3 0  9995
2 33063  48.4409 240.4509 0007418  17.0381 343.0780 14.75171894827874
