<?xml version="1.0" encoding="UTF-8"?>
<ndm xmlns:xsi="http://www.w3.org/2001/XMLSchema-instance" xsi:noNamespaceSchemaLocation="https://sanaregistry.org/r/ndmxml_unqualified/ndmxml-2.0.0-master-2.0.xsd">
<omm id="CCSDS_OMM_VERS" version="2.0">
<header><CREATION_DATE/><ORIGINATOR/></header><body><segment><metadata><OBJECT_NAME>ORBCOMM FM33 [-]</OBJECT_NAME><OBJECT_ID>1999-065D</OBJECT_ID><CENTER_NAME>EARTH</CENTER_NAME><REF_FRAME>TEME</REF_FRAME><TIME_SYSTEM>UTC</TIME_SYSTEM><MEAN_ELEMENT_THEORY>SGP4</MEAN_ELEMENT_THEORY></metadata><data><meanElements><EPOCH>2023-11-10T14:17:11.245920</EPOCH><MEAN_MOTION>14.36963070</MEAN_MOTION><ECCENTRICITY>.0009794</ECCENTRICITY><INCLINATION>45.0290</INCLINATION><RA_OF_ASC_NODE>251.0651</RA_OF_ASC_NODE><ARG_OF_PERICENTER>357.3100</ARG_OF_PERICENTER><MEAN_ANOMALY>172.1857</MEAN_ANOMALY></meanElements><tleParameters><EPHEMERIS_TYPE>0</EPHEMERIS_TYPE><CLASSIFICATION_TYPE>U</CLASSIFICATION_TYPE><NORAD_CAT_ID>25983</NORAD_CAT_ID><ELEMENT_SET_NO>999</ELEMENT_SET_NO><REV_AT_EPOCH>25189</REV_AT_EPOCH><BSTAR>.6218E-3</BSTAR><MEAN_MOTION_DOT>.1718E-4</MEAN_MOTION_DOT><MEAN_MOTION_DDOT>0</MEAN_MOTION_DDOT></tleParameters></data></segment></body></omm>
<omm id="CCSDS_OMM_VERS" version="2.0">
<header><CREATION_DATE/><ORIGINATOR/></header><body><segment><metadata><OBJECT_NAME>ORBCOMM FM36 [-]</OBJECT_NAME><OBJECT_ID>1999-065E</OBJECT_ID><CENTER_NAME>EARTH</CENTER_NAME><REF_FRAME>TEME</REF_FRAME><TIME_SYSTEM>UTC</TIME_SYSTEM><MEAN_ELEMENT_THEORY>SGP4</MEAN_ELEMENT_THEORY></metadata><data><meanElements><EPOCH>2023-11-10T17:59:34.473120</EPOCH><MEAN_MOTION>14.34838413</MEAN_MOTION><ECCENTRICITY>.0005458</ECCENTRICITY><INCLINATION>45.0409</INCLINATION><RA_OF_ASC_NODE>332.7042</RA_OF_ASC_NODE><ARG_OF_PERICENTER>256.1016</ARG_OF_PERICENTER><MEAN_ANOMALY>103.9225</MEAN_ANOMALY></meanElements><tleParameters><EPHEMERIS_TYPE>0</EPHEMERIS_TYPE><CLASSIFICATION_TYPE>U</CLASSIFICATION_TYPE><NORAD_CAT_ID>25984</NORAD_CAT_ID><ELEMENT_SET_NO>999</ELEMENT_SET_NO><REV_AT_EPOCH>25039</REV_AT_EPOCH><BSTAR>.73154E-3</BSTAR><MEAN_MOTION_DOT>.1955E-4</MEAN_MOTION_DOT><MEAN_MOTION_DDOT>0</MEAN_MOTION_DDOT></tleParameters></data></segment></body></omm>
<omm id="CCSDS_OMM_VERS" version="2.0">
<header><CREATION_DATE/><ORIGINATOR/></header><body><segment><metadata><OBJECT_NAME>ORBCOMM FM35 [+]</OBJECT_NAME><OBJECT_ID>1999-065F</OBJECT_ID><CENTER_NAME>EARTH</CENTER_NAME><REF_FRAME>TEME</REF_FRAME><TIME_SYSTEM>UTC</TIME_SYSTEM><MEAN_ELEMENT_THEORY>SGP4</MEAN_ELEMENT_THEORY></metadata><data><meanElements><EPOCH>2023-11-11T10:37:09.096096</EPOCH><MEAN_MOTION>14.34518931</MEAN_MOTION><ECCENTRICITY>.0003767</ECCENTRICITY><INCLINATION>45.0407</INCLINATION><RA_OF_ASC_NODE>331.5883</RA_OF_ASC_NODE><ARG_OF_PERICENTER>324.8310</ARG_OF_PERICENTER><MEAN_ANOMALY>35.2288</MEAN_ANOMALY></meanElements><tleParameters><EPHEMERIS_TYPE>0</EPHEMERIS_TYPE><CLASSIFICATION_TYPE>U</CLASSIFICATION_TYPE><NORAD_CAT_ID>25985</NORAD_CAT_ID><ELEMENT_SET_NO>999</ELEMENT_SET_NO><REV_AT_EPOCH>25108</REV_AT_EPOCH><BSTAR>.58863E-3</BSTAR><MEAN_MOTION_DOT>.1534E-4</MEAN_MOTION_DOT><MEAN_MOTION_DDOT>0</MEAN_MOTION_DDOT></tleParameters></data></segment></body></omm>
<omm id="CCSDS_OMM_VERS" version="2.0">
<header><CREATION_DATE/><ORIGINATOR/></header><body><segment><metadata><OBJECT_NAME>ORBCOMM FM34 [-]</OBJECT_NAME><OBJECT_ID>1999-065G</OBJECT_ID><CENTER_NAME>EARTH</CENTER_NAME><REF_FRAME>TEME</REF_FRAME><TIME_SYSTEM>UTC</TIME_SYSTEM><MEAN_ELEMENT_THEORY>SGP4</MEAN_ELEMENT_THEORY></metadata><data><meanElements><EPOCH>2023-11-11T09:46:51.249504</EPOCH><MEAN_MOTION>14.34470676</MEAN_MOTION><ECCENTRICITY>.0005559</ECCENTRICITY><INCLINATION>45.0403</INCLINATION><RA_OF_ASC_NODE>332.2364</RA_OF_ASC_NODE><ARG_OF_PERICENTER>289.0810</ARG_OF_PERICENTER><MEAN_ANOMALY>70.9435</MEAN_ANOMALY></meanElements><tleParameters><EPHEMERIS_TYPE>0</EPHEMERIS_TYPE><CLASSIFICATION_TYPE>U</CLASSIFICATION_TYPE><NORAD_CAT_ID>25986</NORAD_CAT_ID><ELEMENT_SET_NO>999</ELEMENT_SET_NO><REV_AT_EPOCH>25104</REV_AT_EPOCH><BSTAR>.56028E-3</BSTAR><MEAN_MOTION_DOT>.1452E-4</MEAN_MOTION_DOT><MEAN_MOTION_DDOT>0</MEAN_MOTION_DDOT></tleParameters></data></segment></body></omm>
<omm id="CCSDS_OMM_VERS" version="2.0">
<header><CREATION_DATE/><ORIGINATOR/></header><body><segment><metadata><OBJECT_NAME>ORBCOMM FM38 [-]</OBJECT_NAME><OBJECT_ID>2008-031A</OBJECT_ID><CENTER_NAME>EARTH</CENTER_NAME><REF_FRAME>TEME</REF_FRAME><TIME_SYSTEM>UTC</TIME_SYSTEM><MEAN_ELEMENT_THEORY>SGP4</MEAN_ELEMENT_THEORY></metadata><data><meanElements><EPOCH>2023-11-10T21:57:04.916736</EPOCH><MEAN_MOTION>14.76386382</MEAN_MOTION><ECCENTRICITY>.000524</ECCENTRICITY><INCLINATION>48.4411</INCLINATION><RA_OF_ASC_NODE>208.1755</RA_OF_ASC_NODE><ARG_OF_PERICENTER>57.1598</ARG_OF_PERICENTER><MEAN_ANOMALY>302.9819</MEAN_ANOMALY></meanElements><tleParameters><EPHEMERIS_TYPE>0</EPHEMERIS_TYPE><CLASSIFICATION_TYPE>U</CLASSIFICATION_TYPE><NORAD_CAT_ID>33060</NORAD_CAT_ID><ELEMENT_SET_NO>999</ELEMENT_SET_NO><REV_AT_EPOCH>82828</REV_AT_EPOCH><BSTAR>.37207E-3</BSTAR><MEAN_MOTION_DOT>.2407E-4</MEAN_MOTION_DOT><MEAN_MOTION_DDOT>0</MEAN_MOTION_DDOT></tleParameters></data></segment></body></omm>
<omm id="CCSDS_OMM_VERS" version="2.0">
<header><CREATION_DATE/><ORIGINATOR/></header><body><segment><metadata><OBJECT_NAME>ORBCOMM FM41 [-]</OBJECT_NAME><OBJECT_ID>2008-031B</OBJECT_ID><CENTER_NAME>EARTH</CENTER_NAME><REF_FRAME>TEME</REF_FRAME><TIME_SYSTEM>UTC</TIME_SYSTEM><MEAN_ELEMENT_THEORY>SGP4</MEAN_ELEMENT_THEORY></metadata><data><meanElements><EPOCH>2023-11-11T03:51:09.600192</EPOCH><MEAN_MOTION>14.76147949</MEAN_MOTION><ECCENTRICITY>.0004413</ECCENTRICITY><INCLINATION>48.4444</INCLINATION><RA_OF_ASC_NODE>213.2244</RA_OF_ASC_NODE><ARG_OF_PERICENTER>43.2693</ARG_OF_PERICENTER><MEAN_ANOMALY>111.0429</MEAN_ANOMALY></meanElements><tleParameters><EPHEMERIS_TYPE>0</EPHEMERIS_TYPE><CLASSIFICATION_TYPE>U</CLASSIFICATION_TYPE><NORAD_CAT_ID>33061</NORAD_CAT_ID><ELEMENT_SET_NO>999</ELEMENT_SET_NO><REV_AT_EPOCH>82826</REV_AT_EPOCH><BSTAR>.36342E-3</BSTAR><MEAN_MOTION_DOT>.2332E-4</MEAN_MOTION_DOT><MEAN_MOTION_DDOT>0</MEAN_MOTION_DDOT></tleParameters></data></segment></body></omm>
<omm id="CCSDS_OMM_VERS" version="2.0">
<header><CREATION_DATE/><ORIGINATOR/></header><body><segment><metadata><OBJECT_NAME>ORBCOMM FM29 [-]</OBJECT_NAME><OBJECT_ID>2008-031C</OBJECT_ID><CENTER_NAME>EARTH</CENTER_NAME><REF_FRAME>TEME</REF_FRAME><TIME_SYSTEM>UTC</TIME_SYSTEM><MEAN_ELEMENT_THEORY>SGP4</MEAN_ELEMENT_THEORY></metadata><data><meanElements><EPOCH>2023-11-11T03:14:52.734048</EPOCH><MEAN_MOTION>14.76030145</MEAN_MOTION><ECCENTRICITY>.0006332</ECCENTRICITY><INCLINATION>48.4400</INCLINATION><RA_OF_ASC_NODE>221.3349</RA_OF_ASC_NODE><ARG_OF_PERICENTER>41.3963</ARG_OF_PERICENTER><MEAN_ANOMALY>100.7223</MEAN_ANOMALY></meanElements><tleParameters><EPHEMERIS_TYPE>0</EPHEMERIS_TYPE><CLASSIFICATION_TYPE>U</CLASSIFICATION_TYPE><NORAD_CAT_ID>33062</NORAD_CAT_ID><ELEMENT_SET_NO>999</ELEMENT_SET_NO><REV_AT_EPOCH>82812</REV_AT_EPOCH><BSTAR>.39047E-3</BSTAR><MEAN_MOTION_DOT>.2514E-4</MEAN_MOTION_DOT><MEAN_MOTION_DDOT>0</MEAN_MOTION_DDOT></tleParameters></data></segment></body></omm>
<omm id="CCSDS_OMM_VERS" version="2.0">
<header><CREATION_DATE/><ORIGINATOR/></header><body><segment><metadata><OBJECT_NAME>ORBCOMM FM39 [-]</OBJECT_NAME><OBJECT_ID>2008-031D</OBJECT_ID><CENTER_NAME>EARTH</CENTER_NAME><REF_FRAME>TEME</REF_FRAME><TIME_SYSTEM>UTC</TIME_SYSTEM><MEAN_ELEMENT_THEORY>SGP4</MEAN_ELEMENT_THEORY></metadata><data><meanElements><EPOCH>2023-11-11T03:55:59.851488</EPOCH><MEAN_MOTION>14.75171894</MEAN_MOTION><ECCENTRICITY>.0007418</ECCENTRICITY><INCLINATION>48.4409</INCLINATION><RA_OF_ASC_NODE>240.4509</RA_OF_ASC_NODE><ARG_OF_PERICENTER>17.0381</ARG_OF_PERICENTER><MEAN_ANOMALY>343.0780</MEAN_ANOMALY></meanElements><tleParameters><EPHEMERIS_TYPE>0</EPHEMERIS_TYPE><CLASSIFICATION_TYPE>U</CLASSIFICATION_TYPE><NORAD_CAT_ID>33063</NORAD_CAT_ID><ELEMENT_SET_NO>999</ELEMENT_SET_NO><REV_AT_EPOCH>82787</REV_AT_EPOCH><BSTAR>.37011E-3</BSTAR><MEAN_MOTION_DOT>.2322E-4</MEAN_MOTION_DOT><MEAN_MOTION_DDOT>0</MEAN_MOTION_DDOT></tleParameters></data></segment></body></omm>

</ndm>
